{"spkid": "20786229", "covariance": {"elements": [{"sigma": 6.85333579791582e-08, "name": "e", "value": ".463452862118223", "title": "eccentricity", "units": null, "label": "e"}, {"value": ".7954254325017285", "title": "perihelion distance", "units": "au", "name": "q", "sigma": 1.02294262067991e-07, "label": "q"}, {"units": "TDB", "value": "2458790.146529713810", "title": "time of perihelion passage", "name": "tp", "sigma": 2.848469494728e-05, "label": "tp"}, {"label": "node", "units": "deg", "title": "longitude of the ascending node", "value": "253.6005356893407", "name": "om", "sigma": 7.98771063894318e-06}, {"units": "deg", "value": "297.8485468006969", "title": "argument of perihelion", "sigma": 1.25038324629906e-05, "name": "w", "label": "peri"}, {"label": "i", "units": "deg", "title": "inclination", "value": "32.97638095124849", "sigma": 3.26540493571531e-05, "name": "i"}], "data": [["4.69682115589945E-15", "-7.009497363333165E-15", "-1.44513681072659E-12", "3.82473274031217E-15", "-2.195864022761073E-13", "-1.310528138400949E-12"], ["-7.009497363333165E-15", "1.046411605203485E-14", "2.166378342307772E-12", "-5.650848423673999E-15", "3.330257656802413E-13", "1.964167895940586E-12"], ["-1.44513681072659E-12", "2.166378342307772E-12", "8.113778462395994E-10", "4.21798959397956E-12", "2.503413778980295E-10", "6.678648224767373E-10"], ["3.82473274031217E-15", "-5.650848423673999E-15", "4.21798959397956E-12", "6.380352125148599E-11", "-5.119101002091099E-11", "1.336556183458973E-10"], ["-2.195864022761073E-13", "3.330257656802413E-13", "2.503413778980295E-10", "-5.119101002091099E-11", "1.563458262625386E-10", "7.535712895484327E-11"], ["-1.310528138400949E-12", "1.964167895940586E-12", "6.678648224767373E-10", "1.336556183458973E-10", "7.535712895484327E-11", "1.066286939419394E-9"]], "labels": ["e", "q", "tp", "node", "peri", "i"], "epoch": "2458870.5"}, "elements": [{"label": "e", "name": "e", "sigma": "6.8777E-8", "title": "eccentricity", "value": ".463405997600625", "units": null}, {"units": "au", "value": "1.482406864330666", "title": "semi-major axis", "sigma": "3.4778E-9", "name": "a", "label": "a"}, {"units": "au", "value": ".7954506325154995", "title": "perihelion distance", "name": "q", "sigma": "1.0253E-7", "label": "q"}, {"title": "inclination; angle with respect to x-y ecliptic plane", "value": "32.98557973001618", "units": "deg", "sigma": "3.2651E-5", "name": "i", "label": "i"}, {"label": "node", "sigma": "8.0174E-6", "name": "om", "title": "longitude of the ascending node", "value": "253.5418558784678", "units": "deg"}, {"title": "argument of perihelion", "value": "297.8700227719198", "units": "deg", "sigma": "1.247E-5", "name": "w", "label": "peri"}, {"label": "M", "title": "mean anomaly", "value": "236.2018025027567", "units": "deg", "name": "ma", "sigma": "1.7968E-5"}, {"sigma": "3.3392E-5", "name": "tp", "value": "2461427.205143478662", "title": "time of perihelion passage", "units": "TDB", "label": "tp"}, {"label": "period", "name": "per", "sigma": "2.32E-6", "units": "d", "title": "sidereal orbital period", "value": "659.2491110715525"}, {"label": "n", "name": "n", "sigma": "1.9217E-9", "units": "deg/d", "value": ".5460758216493474", "title": "mean motion"}, {"label": "Q", "sigma": "5.0894E-9", "name": "ad", "units": "au", "title": "aphelion distance", "value": "2.169363096145833"}], "epoch": "2461200.5"}